start=new Date('2021-09-13T00:00:00.000Z').valueOf();
sats=[{"INCLINATION":"53.0530","DECAY_DATE":null,"PERIAPSIS":"545.942","EPHEMERIS_TYPE":"0","ARG_OF_PERICENTER":"64.3864","LAUNCH_DATE":"2020-09-03","MEAN_ANOMALY":"295.7315","OBJECT_ID":"2020-062R","MEAN_MOTION_DDOT":"0.0000000000000","FILE":"3114195","MEAN_ELEMENT_THEORY":"SGP4","TLE_LINE1":"1 46340U 20062R   21255.75938192  .00000617  00000-0  60303-4 0  9996","RCS_SIZE":"LARGE","REV_AT_EPOCH":"5728","OBJECT_NAME":"STARLINK-1759","SITE":"AFETR","PERIOD":"95.592","APOAPSIS":"548.482","CENTER_NAME":"EARTH","NORAD_CAT_ID":"46340","SEMIMAJOR_AXIS":"6925.347","ECCENTRICITY":"0.00018340","EPOCH":"2021-09-12T18:13:30.597888","OBJECT_TYPE":"PAYLOAD","RA_OF_ASC_NODE":"174.0699","GP_ID":"184600664","TLE_LINE2":"2 46340  53.0530 174.0699 0001834  64.3864 295.7315 15.06400455 57282","TIME_SYSTEM":"UTC","CLASSIFICATION_TYPE":"U","REF_FRAME":"TEME","ELEMENT_SET_NO":"999","MEAN_MOTION_DOT":"0.00000617","COUNTRY_CODE":"US","BSTAR":"0.00006030300000","MEAN_MOTION":"15.06400455"},{"PERIOD":"95.592","SITE":"AFETR","OBJECT_NAME":"STARLINK-1760","REV_AT_EPOCH":"5759","RCS_SIZE":"LARGE","MEAN_ELEMENT_THEORY":"SGP4","TLE_LINE1":"1 46341U 20062S   21255.89855723 -.00000145  00000-0  91764-5 0  9993","FILE":"3114195","MEAN_MOTION_DDOT":"0.0000000000000","OBJECT_ID":"2020-062S","MEAN_ANOMALY":"291.2693","ARG_OF_PERICENTER":"68.8512","LAUNCH_DATE":"2020-09-03","PERIAPSIS":"545.818","EPHEMERIS_TYPE":"0","DECAY_DATE":null,"INCLINATION":"53.0547","MEAN_MOTION":"15.06398116","BSTAR":"0.00000917640000","MEAN_MOTION_DOT":"-0.00000145","COUNTRY_CODE":"US","ELEMENT_SET_NO":"999","REF_FRAME":"TEME","CLASSIFICATION_TYPE":"U","TLE_LINE2":"2 46341  53.0547 153.4532 0002024  68.8512 291.2693 15.06398116 57593","TIME_SYSTEM":"UTC","GP_ID":"184600401","RA_OF_ASC_NODE":"153.4532","OBJECT_TYPE":"PAYLOAD","EPOCH":"2021-09-12T21:33:55.344672","ECCENTRICITY":"0.00020240","NORAD_CAT_ID":"46341","SEMIMAJOR_AXIS":"6925.354","CENTER_NAME":"EARTH","APOAPSIS":"548.621"},{"INCLINATION":"53.0556","DECAY_DATE":null,"PERIAPSIS":"545.935","EPHEMERIS_TYPE":"0","ARG_OF_PERICENTER":"61.5455","LAUNCH_DATE":"2020-09-03","MEAN_ANOMALY":"298.5720","OBJECT_ID":"2020-062T","MEAN_MOTION_DDOT":"0.0000000000000","FILE":"3114195","TLE_LINE1":"1 46342U 20062T   21255.81193270 -.00000323  00000-0 -27958-5 0  9991","MEAN_ELEMENT_THEORY":"SGP4","RCS_SIZE":"LARGE","REV_AT_EPOCH":"5729","OBJECT_NAME":"STARLINK-1762","PERIOD":"95.592","SITE":"AFETR","APOAPSIS":"548.506","CENTER_NAME":"EARTH","NORAD_CAT_ID":"46342","SEMIMAJOR_AXIS":"6925.356","ECCENTRICITY":"0.00018560","EPOCH":"2021-09-12T19:29:10.985280","OBJECT_TYPE":"PAYLOAD","RA_OF_ASC_NODE":"173.8336","GP_ID":"184599663","TLE_LINE2":"2 46342  53.0556 173.8336 0001856  61.5455 298.5720 15.06397673 57295","TIME_SYSTEM":"UTC","CLASSIFICATION_TYPE":"U","REF_FRAME":"TEME","ELEMENT_SET_NO":"999","MEAN_MOTION_DOT":"-0.00000323","COUNTRY_CODE":"US","BSTAR":"-0.00000279580000","MEAN_MOTION":"15.06397673"},{"OBJECT_NAME":"STARLINK-1764","REV_AT_EPOCH":"5758","PERIOD":"95.593","SITE":"AFETR","FILE":"3114195","RCS_SIZE":"LARGE","MEAN_ELEMENT_THEORY":"SGP4","TLE_LINE1":"1 46343U 20062U   21255.87275042  .00000598  00000-0  59096-4 0  9995","ARG_OF_PERICENTER":"74.5364","LAUNCH_DATE":"2020-09-03","MEAN_ANOMALY":"285.5848","MEAN_MOTION_DDOT":"0.0000000000000","OBJECT_ID":"2020-062U","INCLINATION":"53.0547","EPHEMERIS_TYPE":"0","PERIAPSIS":"545.835","DECAY_DATE":null,"COUNTRY_CODE":"US","MEAN_MOTION_DOT":"0.00000598","MEAN_MOTION":"15.06393145","BSTAR":"0.00005909600000","TLE_LINE2":"2 46343  53.0547 153.5581 0002021  74.5364 285.5848 15.06393145 57580","TIME_SYSTEM":"UTC","CLASSIFICATION_TYPE":"U","ELEMENT_SET_NO":"999","REF_FRAME":"TEME","EPOCH":"2021-09-12T20:56:45.636288","RA_OF_ASC_NODE":"153.5581","OBJECT_TYPE":"PAYLOAD","ECCENTRICITY":"0.00020210","GP_ID":"184599913","APOAPSIS":"548.634","SEMIMAJOR_AXIS":"6925.370","NORAD_CAT_ID":"46343","CENTER_NAME":"EARTH"},{"APOAPSIS":"548.636","SEMIMAJOR_AXIS":"6925.371","NORAD_CAT_ID":"46344","CENTER_NAME":"EARTH","RA_OF_ASC_NODE":"153.4766","OBJECT_TYPE":"PAYLOAD","EPOCH":"2021-09-12T21:23:18.345984","ECCENTRICITY":"0.00020220","GP_ID":"184600164","CLASSIFICATION_TYPE":"U","TIME_SYSTEM":"UTC","TLE_LINE2":"2 46344  53.0534 153.4766 0002022  62.5032 297.6162 15.06392825 57588","ELEMENT_SET_NO":"999","REF_FRAME":"TEME","COUNTRY_CODE":"US","MEAN_MOTION_DOT":"0.00000441","MEAN_MOTION":"15.06392825","BSTAR":"0.00004855200000","INCLINATION":"53.0534","EPHEMERIS_TYPE":"0","PERIAPSIS":"545.835","DECAY_DATE":null,"MEAN_ANOMALY":"297.6162","ARG_OF_PERICENTER":"62.5032","LAUNCH_DATE":"2020-09-03","MEAN_MOTION_DDOT":"0.0000000000000","OBJECT_ID":"2020-062V","FILE":"3114195","RCS_SIZE":"LARGE","TLE_LINE1":"1 46344U 20062V   21255.89118456  .00000441  00000-0  48552-4 0  9995","MEAN_ELEMENT_THEORY":"SGP4","OBJECT_NAME":"STARLINK-1765","REV_AT_EPOCH":"5758","PERIOD":"95.593","SITE":"AFETR"},{"CENTER_NAME":"EARTH","SEMIMAJOR_AXIS":"6925.352","NORAD_CAT_ID":"46345","APOAPSIS":"548.562","GP_ID":"184600902","ECCENTRICITY":"0.00019420","RA_OF_ASC_NODE":"173.4593","OBJECT_TYPE":"PAYLOAD","EPOCH":"2021-09-12T21:25:57.377280","REF_FRAME":"TEME","ELEMENT_SET_NO":"999","CLASSIFICATION_TYPE":"U","TIME_SYSTEM":"UTC","TLE_LINE2":"2 46345  53.0531 173.4593 0001942  62.6659 297.4527 15.06398759 57307","BSTAR":"0.00010102000000","MEAN_MOTION":"15.06398759","MEAN_MOTION_DOT":"0.00001223","COUNTRY_CODE":"US","DECAY_DATE":null,"PERIAPSIS":"545.872","EPHEMERIS_TYPE":"0","INCLINATION":"53.0531","OBJECT_ID":"2020-062W","MEAN_MOTION_DDOT":"0.0000000000000","MEAN_ANOMALY":"297.4527","LAUNCH_DATE":"2020-09-03","ARG_OF_PERICENTER":"62.6659","TLE_LINE1":"1 46345U 20062W   21255.89302520  .00001223  00000-0  10102-3 0  9991","MEAN_ELEMENT_THEORY":"SGP4","RCS_SIZE":"LARGE","FILE":"3114195","PERIOD":"95.592","SITE":"AFETR","REV_AT_EPOCH":"5730","OBJECT_NAME":"STARLINK-1767"},{"MEAN_MOTION":"15.34266339","BSTAR":"0.00003362600000","COUNTRY_CODE":"US","MEAN_MOTION_DOT":"0.00000756","ELEMENT_SET_NO":"999","REF_FRAME":"TEME","TLE_LINE2":"2 46346  53.0545  71.9437 0001184 106.3473 253.7658 15.34266339 58726","TIME_SYSTEM":"UTC","CLASSIFICATION_TYPE":"U","GP_ID":"184599163","EPOCH":"2021-09-12T18:42:51.587136","RA_OF_ASC_NODE":"71.9437","OBJECT_TYPE":"PAYLOAD","ECCENTRICITY":"0.00011840","NORAD_CAT_ID":"46346","SEMIMAJOR_AXIS":"6841.238","CENTER_NAME":"EARTH","APOAPSIS":"463.913","PERIOD":"93.856","SITE":"AFETR","OBJECT_NAME":"STARLINK-1546","REV_AT_EPOCH":"5872","RCS_SIZE":"LARGE","TLE_LINE1":"1 46346U 20062X   21255.77976374  .00000756  00000-0  33626-4 0  9990","MEAN_ELEMENT_THEORY":"SGP4","FILE":"3114195","MEAN_MOTION_DDOT":"0.0000000000000","OBJECT_ID":"2020-062X","ARG_OF_PERICENTER":"106.3473","LAUNCH_DATE":"2020-09-03","MEAN_ANOMALY":"253.7658","PERIAPSIS":"462.293","EPHEMERIS_TYPE":"0","DECAY_DATE":null,"INCLINATION":"53.0545"},{"MEAN_ELEMENT_THEORY":"SGP4","TLE_LINE1":"1 46347U 20062Y   21255.91744682  .00001966  00000-0  15086-3 0  9995","RCS_SIZE":"LARGE","FILE":"3114195","PERIOD":"95.592","SITE":"AFETR","REV_AT_EPOCH":"5792","OBJECT_NAME":"STARLINK-1547","DECAY_DATE":null,"EPHEMERIS_TYPE":"0","PERIAPSIS":"545.868","INCLINATION":"53.0543","OBJECT_ID":"2020-062Y","MEAN_MOTION_DDOT":"0.0000000000000","MEAN_ANOMALY":"280.3224","LAUNCH_DATE":"2020-09-03","ARG_OF_PERICENTER":"79.7985","REF_FRAME":"TEME","ELEMENT_SET_NO":"999","CLASSIFICATION_TYPE":"U","TLE_LINE2":"2 46347  53.0543 128.3415 0001952  79.7985 280.3224 15.06398036 57927","TIME_SYSTEM":"UTC","BSTAR":"0.00015086000000","MEAN_MOTION":"15.06398036","COUNTRY_CODE":"US","MEAN_MOTION_DOT":"0.00001966","CENTER_NAME":"EARTH","SEMIMAJOR_AXIS":"6925.355","NORAD_CAT_ID":"46347","APOAPSIS":"548.571","GP_ID":"184599413","ECCENTRICITY":"0.00019520","OBJECT_TYPE":"PAYLOAD","RA_OF_ASC_NODE":"128.3415","EPOCH":"2021-09-12T22:01:07.405248"},{"RCS_SIZE":"LARGE","MEAN_ELEMENT_THEORY":"SGP4","TLE_LINE1":"1 46348U 20062Z   21255.89487125  .00000105  00000-0  25950-4 0  9995","FILE":"3114195","PERIOD":"95.593","SITE":"AFETR","OBJECT_NAME":"STARLINK-1553","REV_AT_EPOCH":"5758","EPHEMERIS_TYPE":"0","PERIAPSIS":"546.080","DECAY_DATE":null,"INCLINATION":"53.0539","MEAN_MOTION_DDOT":"0.0000000000000","OBJECT_ID":"2020-062Z","MEAN_ANOMALY":"283.7178","LAUNCH_DATE":"2020-09-03","ARG_OF_PERICENTER":"76.3997","ELEMENT_SET_NO":"999","REF_FRAME":"TEME","CLASSIFICATION_TYPE":"U","TIME_SYSTEM":"UTC","TLE_LINE2":"2 46348  53.0539 153.4515 0001670  76.3997 283.7178 15.06392578 57588","MEAN_MOTION":"15.06392578","BSTAR":"0.00002595000000","MEAN_MOTION_DOT":"0.00000105","COUNTRY_CODE":"US","NORAD_CAT_ID":"46348","SEMIMAJOR_AXIS":"6925.371","CENTER_NAME":"EARTH","APOAPSIS":"548.393","GP_ID":"184600665","RA_OF_ASC_NODE":"153.4515","OBJECT_TYPE":"PAYLOAD","EPOCH":"2021-09-12T21:28:36.876000","ECCENTRICITY":"0.00016700"},{"CENTER_NAME":"EARTH","SEMIMAJOR_AXIS":"6925.365","NORAD_CAT_ID":"46349","APOAPSIS":"548.477","GP_ID":"184600402","ECCENTRICITY":"0.00018000","OBJECT_TYPE":"PAYLOAD","RA_OF_ASC_NODE":"128.3332","EPOCH":"2021-09-12T21:23:57.980256","REF_FRAME":"TEME","ELEMENT_SET_NO":"999","CLASSIFICATION_TYPE":"U","TLE_LINE2":"2 46349  53.0550 128.3332 0001800  89.0648 271.0547 15.06394585 57938","TIME_SYSTEM":"UTC","BSTAR":"-0.00001197700000","MEAN_MOTION":"15.06394585","COUNTRY_CODE":"US","MEAN_MOTION_DOT":"-0.00000460","DECAY_DATE":null,"EPHEMERIS_TYPE":"0","PERIAPSIS":"545.984","INCLINATION":"53.0550","OBJECT_ID":"2020-062AA","MEAN_MOTION_DDOT":"0.0000000000000","MEAN_ANOMALY":"271.0547","LAUNCH_DATE":"2020-09-03","ARG_OF_PERICENTER":"89.0648","MEAN_ELEMENT_THEORY":"SGP4","TLE_LINE1":"1 46349U 20062AA  21255.89164329 -.00000460  00000-0 -11977-4 0  9994","RCS_SIZE":"LARGE","FILE":"3114195","SITE":"AFETR","PERIOD":"95.592","REV_AT_EPOCH":"5793","OBJECT_NAME":"STARLINK-1575"}];
